{"type": "FeatureCollection", "features": [ {"type": "Feature", "properties": {"norad_id": 39122, "name": "EUTELSAT 117 WEST A", "group": "eutelsat", "lat": 0.02452068975578953, "lon": 51.93741921515252, "alt_km": 35796.0731760723, "timestamp": "2025-12-14T05:42:18.128858+00:00", "meta": {"OBJECT_NAME": "EUTELSAT 117 WEST A", "OBJECT_ID": "2013-012A", "EPOCH": "2025-12-13T12:57:15.289056", "MEAN_MOTION": 1.00271918, "ECCENTRICITY": 0.00028701, "INCLINATION": 0.017, "RA_OF_ASC_NODE": 20.0014, "ARG_OF_PERICENTER": 246.1172, "MEAN_ANOMALY": 253.859, "EPHEMERIS_TYPE": 0, "CLASSIFICATION_TYPE": "U", "NORAD_CAT_ID": 39122, "ELEMENT_SET_NO": 999, "REV_AT_EPOCH": 4657, "BSTAR": 0, "MEAN_MOTION_DOT": 2e-08, "MEAN_MOTION_DDOT": 0}, "tle": {"line1": "1 39122U 13012A   25347.53976029  .00000002  00000+0  00000+0 0  9996", "line2": "2 39122   0.0170  20.0014 0002870 246.1172 253.8590  1.00271918 46577"}}, "geometry": {"type": "Point", "coordinates": [51.93741921515252, 0.02452068975578953]}}, {"type": "Feature", "properties": {"norad_id": 39163, "name": "EUTELSAT 7B", "group": "eutelsat", "lat": 0.027767560898852843, "lon": 175.69779642837648, "alt_km": 35801.11654907356, "timestamp": "2025-12-14T05:42:18.128870+00:00", "meta": {"OBJECT_NAME": "EUTELSAT 7B", "OBJECT_ID": "2013-022A", "EPOCH": "2025-12-13T15:11:40.735104", "MEAN_MOTION": 1.00273402, "ECCENTRICITY": 0.00046497, "INCLINATION": 0.0747, "RA_OF_ASC_NODE": 22.8129, "ARG_OF_PERICENTER": 295.6945, "MEAN_ANOMALY": 358.9761, "EPHEMERIS_TYPE": 0, "CLASSIFICATION_TYPE": "U", "NORAD_CAT_ID": 39163, "ELEMENT_SET_NO": 999, "REV_AT_EPOCH": 4609, "BSTAR": 0, "MEAN_MOTION_DOT": 6.4e-07, "MEAN_MOTION_DDOT": 0}, "tle": {"line1": "1 39163U 13022A   25347.63311036  .00000064  00000+0  00000+0 0  9992", "line2": "2 39163   0.0747  22.8129 0004649 295.6945 358.9761  1.00273402 46096"}}, "geometry": {"type": "Point", "coordinates": [175.69779642837648, 0.027767560898852843]}}, {"type": "Feature", "properties": {"norad_id": 39612, "name": "EXPRESS-AT1", "group": "eutelsat", "lat": -0.03491446049953176, "lon": -135.29008196463343, "alt_km": 35786.30235349462, "timestamp": "2025-12-14T05:42:18.128882+00:00", "meta": {"OBJECT_NAME": "EXPRESS-AT1", "OBJECT_ID": "2014-010A", "EPOCH": "2025-12-13T10:17:31.405344", "MEAN_MOTION": 1.00270351, "ECCENTRICITY": 2.91e-06, "INCLINATION": 0.0163, "RA_OF_ASC_NODE": 325.8059, "ARG_OF_PERICENTER": 236.4192, "MEAN_ANOMALY": 90.5055, "EPHEMERIS_TYPE": 0, "CLASSIFICATION_TYPE": "U", "NORAD_CAT_ID": 39612, "ELEMENT_SET_NO": 999, "REV_AT_EPOCH": 4295, "BSTAR": 0, "MEAN_MOTION_DOT": 0, "MEAN_MOTION_DDOT": 0}, "tle": {"line1": "1 39612U 14010A   25347.42883571  .00000000  00000+0  00000+0 0  9994", "line2": "2 39612   0.0163 325.8059 0000029 236.4192  90.5055  1.00270351 42956"}}, "geometry": {"type": "Point", "coordinates": [-135.29008196463343, -0.03491446049953176]}}, {"type": "Feature", "properties": {"norad_id": 39613, "name": "EXPRESS-AT2", "group": "eutelsat", "lat": -0.008913748046753106, "lon": -51.42039057710295, "alt_km": 35780.62542484492, "timestamp": "2025-12-14T05:42:18.128894+00:00", "meta": {"OBJECT_NAME": "EXPRESS-AT2", "OBJECT_ID": "2014-010B", "EPOCH": "2025-12-13T15:49:37.101216", "MEAN_MOTION": 1.00270384, "ECCENTRICITY": 0.00014413, "INCLINATION": 0.019, "RA_OF_ASC_NODE": 316.3324, "ARG_OF_PERICENTER": 339.0793, "MEAN_ANOMALY": 164.4354, "EPHEMERIS_TYPE": 0, "CLASSIFICATION_TYPE": "U", "NORAD_CAT_ID": 39613, "ELEMENT_SET_NO": 999, "REV_AT_EPOCH": 4264, "BSTAR": 0, "MEAN_MOTION_DOT": -2.66e-06, "MEAN_MOTION_DDOT": 0}, "tle": {"line1": "1 39613U 14010B   25347.65945719 -.00000266  00000+0  00000+0 0  9998", "line2": "2 39613   0.0190 316.3324 0001441 339.0793 164.4354  1.00270384 42648"}}, "geometry": {"type": "Point", "coordinates": [-51.42039057710295, -0.008913748046753106]}}, {"type": "Feature", "properties": {"norad_id": 39773, "name": "EUTELSAT 3B", "group": "eutelsat", "lat": -0.006217773750697823, "lon": 171.77227332679186, "alt_km": 35776.389622029616, "timestamp": "2025-12-14T05:42:18.128906+00:00", "meta": {"OBJECT_NAME": "EUTELSAT 3B", "OBJECT_ID": "2014-030A", "EPOCH": "2025-12-13T15:10:33.342240", "MEAN_MOTION": 1.00270909, "ECCENTRICITY": 0.00045163, "INCLINATION": 0.0608, "RA_OF_ASC_NODE": 351.0873, "ARG_OF_PERICENTER": 239.2444, "MEAN_ANOMALY": 82.9625, "EPHEMERIS_TYPE": 0, "CLASSIFICATION_TYPE": "U", "NORAD_CAT_ID": 39773, "ELEMENT_SET_NO": 999, "REV_AT_EPOCH": 4220, "BSTAR": 0, "MEAN_MOTION_DOT": 3.5e-07, "MEAN_MOTION_DDOT": 0}, "tle": {"line1": "1 39773U 14030A   25347.63233035  .00000035  00000+0  00000+0 0  9999", "line2": "2 39773   0.0608 351.0873 0004516 239.2444  82.9625  1.00270909 42204"}}, "geometry": {"type": "Point", "coordinates": [171.77227332679186, -0.006217773750697823]}}, {"type": "Feature", "properties": {"norad_id": 40425, "name": "EUTELSAT 115 WEST B", "group": "eutelsat", "lat": 0.00017069582548045635, "lon": 53.843739733166146, "alt_km": 35785.512224106395, "timestamp": "2025-12-14T05:42:18.128917+00:00", "meta": {"OBJECT_NAME": "EUTELSAT 115 WEST B", "OBJECT_ID": "2015-010B", "EPOCH": "2025-12-12T23:12:23.635008", "MEAN_MOTION": 1.00273842, "ECCENTRICITY": 7.22e-06, "INCLINATION": 0.0199, "RA_OF_ASC_NODE": 163.8927, "ARG_OF_PERICENTER": 349.5019, "MEAN_ANOMALY": 161.7193, "EPHEMERIS_TYPE": 0, "CLASSIFICATION_TYPE": "U", "NORAD_CAT_ID": 40425, "ELEMENT_SET_NO": 999, "REV_AT_EPOCH": 3952, "BSTAR": 0, "MEAN_MOTION_DOT": -1.3e-07, "MEAN_MOTION_DDOT": 0}, "tle": {"line1": "1 40425U 15010B   25346.96694022 -.00000013  00000+0  00000+0 0  9993", "line2": "2 40425   0.0199 163.8927 0000072 349.5019 161.7193  1.00273842 39526"}}, "geometry": {"type": "Point", "coordinates": [53.843739733166146, 0.00017069582548045635]}}, {"type": "Feature", "properties": {"norad_id": 40875, "name": "EUTELSAT 8 WEST B", "group": "eutelsat", "lat": 0.03126492156683984, "lon": 160.69184239816713, "alt_km": 35790.021193003515, "timestamp": "2025-12-14T05:42:18.128929+00:00", "meta": {"OBJECT_NAME": "EUTELSAT 8 WEST B", "OBJECT_ID": "2015-039B", "EPOCH": "2025-12-13T15:07:26.141088", "MEAN_MOTION": 1.00271705, "ECCENTRICITY": 0.00042376, "INCLINATION": 0.0661, "RA_OF_ASC_NODE": 10.0371, "ARG_OF_PERICENTER": 253.3636, "MEAN_ANOMALY": 38.0323, "EPHEMERIS_TYPE": 0, "CLASSIFICATION_TYPE": "U", "NORAD_CAT_ID": 40875, "ELEMENT_SET_NO": 999, "REV_AT_EPOCH": 3779, "BSTAR": 0, "MEAN_MOTION_DOT": -5e-07, "MEAN_MOTION_DDOT": 0}, "tle": {"line1": "1 40875U 15039B   25347.63016367 -.00000050  00000+0  00000+0 0  9999", "line2": "2 40875   0.0661  10.0371 0004237 253.3636  38.0323  1.00271705 37793"}}, "geometry": {"type": "Point", "coordinates": [160.69184239816713, 0.03126492156683984]}}, {"type": "Feature", "properties": {"norad_id": 41310, "name": "EUTELSAT 9B", "group": "eutelsat", "lat": 0.032939195084020496, "lon": 177.6675299819666, "alt_km": 35787.50491137424, "timestamp": "2025-12-14T05:42:18.128941+00:00", "meta": {"OBJECT_NAME": "EUTELSAT 9B", "OBJECT_ID": "2016-005A", "EPOCH": "2025-12-13T15:12:18.174816", "MEAN_MOTION": 1.00270425, "ECCENTRICITY": 0.00046175, "INCLINATION": 0.0471, "RA_OF_ASC_NODE": 65.8451, "ARG_OF_PERICENTER": 205.1638, "MEAN_ANOMALY": 48.628, "EPHEMERIS_TYPE": 0, "CLASSIFICATION_TYPE": "U", "NORAD_CAT_ID": 41310, "ELEMENT_SET_NO": 999, "REV_AT_EPOCH": 3625, "BSTAR": 0, "MEAN_MOTION_DOT": 7.7e-07, "MEAN_MOTION_DDOT": 0}, "tle": {"line1": "1 41310U 16005A   25347.63354369  .00000077  00000+0  00000+0 0  9993", "line2": "2 41310   0.0471  65.8451 0004617 205.1638  48.6280  1.00270425 36250"}}, "geometry": {"type": "Point", "coordinates": [177.6675299819666, 0.032939195084020496]}}, {"type": "Feature", "properties": {"norad_id": 41382, "name": "EUTELSAT 65 WEST A", "group": "eutelsat", "lat": 0.06805344564444608, "lon": 103.52042530137044, "alt_km": 35796.35006083653, "timestamp": "2025-12-14T05:42:18.128982+00:00", "meta": {"OBJECT_NAME": "EUTELSAT 65 WEST A", "OBJECT_ID": "2016-014A", "EPOCH": "2025-12-13T13:08:22.543296", "MEAN_MOTION": 1.0027172, "ECCENTRICITY": 0.00024684, "INCLINATION": 0.0529, "RA_OF_ASC_NODE": 16.4904, "ARG_OF_PERICENTER": 254.2667, "MEAN_ANOMALY": 303.6171, "EPHEMERIS_TYPE": 0, "CLASSIFICATION_TYPE": "U", "NORAD_CAT_ID": 41382, "ELEMENT_SET_NO": 999, "REV_AT_EPOCH": 3567, "BSTAR": 0, "MEAN_MOTION_DOT": -2.61e-06, "MEAN_MOTION_DDOT": 0}, "tle": {"line1": "1 41382U 16014A   25347.54748314 -.00000261  00000+0  00000+0 0  9995", "line2": "2 41382   0.0529  16.4904 0002468 254.2667 303.6171  1.00271720 35674"}}, "geometry": {"type": "Point", "coordinates": [103.52042530137044, 0.06805344564444608]}}, {"type": "Feature", "properties": {"norad_id": 41589, "name": "EUTELSAT 117 WEST B", "group": "eutelsat", "lat": -0.008399620562968765, "lon": 51.74700865217527, "alt_km": 35784.968851323225, "timestamp": "2025-12-14T05:42:18.129007+00:00", "meta": {"OBJECT_NAME": "EUTELSAT 117 WEST B", "OBJECT_ID": "2016-038B", "EPOCH": "2025-12-12T23:11:46.195296", "MEAN_MOTION": 1.00271866, "ECCENTRICITY": 2.512e-05, "INCLINATION": 0.011, "RA_OF_ASC_NODE": 153.7448, "ARG_OF_PERICENTER": 269.9053, "MEAN_ANOMALY": 249.2194, "EPHEMERIS_TYPE": 0, "CLASSIFICATION_TYPE": "U", "NORAD_CAT_ID": 41589, "ELEMENT_SET_NO": 999, "REV_AT_EPOCH": 3479, "BSTAR": 0, "MEAN_MOTION_DOT": 1e-08, "MEAN_MOTION_DDOT": 0}, "tle": {"line1": "1 41589U 16038B   25346.96650689  .00000001  00000+0  00000+0 0  9993", "line2": "2 41589   0.0110 153.7448 0000251 269.9053 249.2194  1.00271866 34790"}}, "geometry": {"type": "Point", "coordinates": [51.74700865217527, -0.008399620562968765]}}]}